{"type": "FeatureCollection", "features": [{"type": "Feature", "properties": {"norad_id": 24946, "name": "IRIDIUM 33", "group": "iridium-33-debris", "lat": -37.05640381092933, "lon": 67.6404514033432, "alt_km": 782.4191531692613, "timestamp": "2025-12-07T14:37:05.588473+00:00", "meta": {"OBJECT_NAME": "IRIDIUM 33", "OBJECT_ID": "1997-051C", "EPOCH": "2025-12-06T20:22:57.411840", "MEAN_MOTION": 14.35030785, "ECCENTRICITY": 0.00064142, "INCLINATION": 86.387, "RA_OF_ASC_NODE": 70.6939, "ARG_OF_PERICENTER": 222.6538, "MEAN_ANOMALY": 137.4161, "EPHEMERIS_TYPE": 0, "CLASSIFICATION_TYPE": "U", "NORAD_CAT_ID": 24946, "ELEMENT_SET_NO": 999, "REV_AT_EPOCH": 47750, "BSTAR": 0.0002262514, "MEAN_MOTION_DOT": 6.64e-06, "MEAN_MOTION_DDOT": 0}, "tle": {"line1": "1 24946U 97051C   25340.84927560  .00000664  00000+0  22625-3 0  9997", "line2": "2 24946  86.3870  70.6939 0006414 222.6538 137.4161 14.35030785477508"}}, "geometry": {"type": "Point", "coordinates": [67.6404514033432, -37.05640381092933]}}, {"type": "Feature", "properties": {"norad_id": 33773, "name": "IRIDIUM 33 DEB", "group": "iridium-33-debris", "lat": 51.46863075099676, "lon": -121.76856066099884, "alt_km": 736.0223966476588, "timestamp": "2025-12-07T14:37:05.588501+00:00", "meta": {"OBJECT_NAME": "IRIDIUM 33 DEB", "OBJECT_ID": "1997-051L", "EPOCH": "2025-12-06T18:03:27.537120", "MEAN_MOTION": 14.43237829, "ECCENTRICITY": 0.00119174, "INCLINATION": 86.4017, "RA_OF_ASC_NODE": 63.1265, "ARG_OF_PERICENTER": 164.3697, "MEAN_ANOMALY": 195.7874, "EPHEMERIS_TYPE": 0, "CLASSIFICATION_TYPE": "U", "NORAD_CAT_ID": 33773, "ELEMENT_SET_NO": 999, "REV_AT_EPOCH": 88261, "BSTAR": 0.00067753631, "MEAN_MOTION_DOT": 2.3e-05, "MEAN_MOTION_DDOT": 0}, "tle": {"line1": "1 33773U 97051L   25340.75240205  .00002300  00000+0  67754-3 0  9990", "line2": "2 33773  86.4017  63.1265 0011917 164.3697 195.7874 14.43237829882618"}}, "geometry": {"type": "Point", "coordinates": [-121.76856066099884, 51.46863075099676]}}, {"type": "Feature", "properties": {"norad_id": 33775, "name": "IRIDIUM 33 DEB", "group": "iridium-33-debris", "lat": -64.83275132258031, "lon": -120.47899616338678, "alt_km": 758.3908577794573, "timestamp": "2025-12-07T14:37:05.588516+00:00", "meta": {"OBJECT_NAME": "IRIDIUM 33 DEB", "OBJECT_ID": "1997-051N", "EPOCH": "2025-12-06T23:03:51.104160", "MEAN_MOTION": 14.41448889, "ECCENTRICITY": 0.0013629, "INCLINATION": 86.3642, "RA_OF_ASC_NODE": 52.0203, "ARG_OF_PERICENTER": 172.757, "MEAN_ANOMALY": 311.204, "EPHEMERIS_TYPE": 0, "CLASSIFICATION_TYPE": "U", "NORAD_CAT_ID": 33775, "ELEMENT_SET_NO": 999, "REV_AT_EPOCH": 88057, "BSTAR": 0.00060366825, "MEAN_MOTION_DOT": 1.979e-05, "MEAN_MOTION_DDOT": 0}, "tle": {"line1": "1 33775U 97051N   25340.96100815  .00001979  00000+0  60367-3 0  9991", "line2": "2 33775  86.3642  52.0203 0013629 172.7570 311.2040 14.41448889880578"}}, "geometry": {"type": "Point", "coordinates": [-120.47899616338678, -64.83275132258031]}}, {"type": "Feature", "properties": {"norad_id": 33776, "name": "IRIDIUM 33 DEB", "group": "iridium-33-debris", "lat": 5.773684904671697, "lon": -97.43415645869695, "alt_km": 758.5374290278296, "timestamp": "2025-12-07T14:37:05.588529+00:00", "meta": {"OBJECT_NAME": "IRIDIUM 33 DEB", "OBJECT_ID": "1997-051P", "EPOCH": "2025-12-06T20:01:49.234368", "MEAN_MOTION": 14.3821751, "ECCENTRICITY": 0.00136844, "INCLINATION": 86.4036, "RA_OF_ASC_NODE": 83.2554, "ARG_OF_PERICENTER": 210.5167, "MEAN_ANOMALY": 276.1963, "EPHEMERIS_TYPE": 0, "CLASSIFICATION_TYPE": "U", "NORAD_CAT_ID": 33776, "ELEMENT_SET_NO": 999, "REV_AT_EPOCH": 87997, "BSTAR": 0.00058665193, "MEAN_MOTION_DOT": 1.802e-05, "MEAN_MOTION_DDOT": 0}, "tle": {"line1": "1 33776U 97051P   25340.83459762  .00001802  00000+0  58665-3 0  9999", "line2": "2 33776  86.4036  83.2554 0013684 210.5167 276.1963 14.38217510879972"}}, "geometry": {"type": "Point", "coordinates": [-97.43415645869695, 5.773684904671697]}}, {"type": "Feature", "properties": {"norad_id": 33777, "name": "IRIDIUM 33 DEB", "group": "iridium-33-debris", "lat": 1.703981364872022, "lon": 37.54341793615813, "alt_km": 710.2562244718247, "timestamp": "2025-12-07T14:37:05.588541+00:00", "meta": {"OBJECT_NAME": "IRIDIUM 33 DEB", "OBJECT_ID": "1997-051Q", "EPOCH": "2025-12-06T22:06:40.267296", "MEAN_MOTION": 14.55548471, "ECCENTRICITY": 0.0005113, "INCLINATION": 86.3787, "RA_OF_ASC_NODE": 37.7345, "ARG_OF_PERICENTER": 276.5659, "MEAN_ANOMALY": 83.4966, "EPHEMERIS_TYPE": 0, "CLASSIFICATION_TYPE": "U", "NORAD_CAT_ID": 33777, "ELEMENT_SET_NO": 999, "REV_AT_EPOCH": 88449, "BSTAR": 0.0014973212, "MEAN_MOTION_DOT": 6.544e-05, "MEAN_MOTION_DDOT": 0}, "tle": {"line1": "1 33777U 97051Q   25340.92129939  .00006544  00000+0  14973-2 0  9991", "line2": "2 33777  86.3787  37.7345 0005113 276.5659  83.4966 14.55548471884490"}}, "geometry": {"type": "Point", "coordinates": [37.54341793615813, 1.703981364872022]}}, {"type": "Feature", "properties": {"norad_id": 33850, "name": "IRIDIUM 33 DEB", "group": "iridium-33-debris", "lat": -33.37525482270483, "lon": -145.19882096385425, "alt_km": 751.0479958473124, "timestamp": "2025-12-07T14:37:05.588553+00:00", "meta": {"OBJECT_NAME": "IRIDIUM 33 DEB", "OBJECT_ID": "1997-051T", "EPOCH": "2025-12-06T16:32:43.404000", "MEAN_MOTION": 14.42128154, "ECCENTRICITY": 0.00116272, "INCLINATION": 86.3421, "RA_OF_ASC_NODE": 32.7812, "ARG_OF_PERICENTER": 179.7696, "MEAN_ANOMALY": 301.7513, "EPHEMERIS_TYPE": 0, "CLASSIFICATION_TYPE": "U", "NORAD_CAT_ID": 33850, "ELEMENT_SET_NO": 999, "REV_AT_EPOCH": 88065, "BSTAR": 0.00070449325, "MEAN_MOTION_DOT": 2.337e-05, "MEAN_MOTION_DDOT": 0}, "tle": {"line1": "1 33850U 97051T   25340.68939125  .00002337  00000+0  70449-3 0  9999", "line2": "2 33850  86.3421  32.7812 0011627 179.7696 301.7513 14.42128154880659"}}, "geometry": {"type": "Point", "coordinates": [-145.19882096385425, -33.37525482270483]}}, {"type": "Feature", "properties": {"norad_id": 33853, "name": "IRIDIUM 33 DEB", "group": "iridium-33-debris", "lat": -46.671559977566766, "lon": -12.192407992686778, "alt_km": 829.9701023527641, "timestamp": "2025-12-07T14:37:05.588565+00:00", "meta": {"OBJECT_NAME": "IRIDIUM 33 DEB", "OBJECT_ID": "1997-051W", "EPOCH": "2025-12-06T19:06:19.087200", "MEAN_MOTION": 13.99006753, "ECCENTRICITY": 0.02068367, "INCLINATION": 85.9999, "RA_OF_ASC_NODE": 352.4179, "ARG_OF_PERICENTER": 254.2071, "MEAN_ANOMALY": 284.6651, "EPHEMERIS_TYPE": 0, "CLASSIFICATION_TYPE": "U", "NORAD_CAT_ID": 33853, "ELEMENT_SET_NO": 999, "REV_AT_EPOCH": 85262, "BSTAR": 0.0035731103, "MEAN_MOTION_DOT": 6.218e-05, "MEAN_MOTION_DDOT": 0}, "tle": {"line1": "1 33853U 97051W   25340.79605425  .00006218  00000+0  35731-2 0  9993", "line2": "2 33853  85.9999 352.4179 0206836 254.2071 284.6651 13.99006753852628"}}, "geometry": {"type": "Point", "coordinates": [-12.192407992686778, -46.671559977566766]}}, {"type": "Feature", "properties": {"norad_id": 33860, "name": "IRIDIUM 33 DEB", "group": "iridium-33-debris", "lat": 42.653719524500865, "lon": 32.849216465523234, "alt_km": 661.2625959469533, "timestamp": "2025-12-07T14:37:05.588576+00:00", "meta": {"OBJECT_NAME": "IRIDIUM 33 DEB", "OBJECT_ID": "1997-051AD", "EPOCH": "2025-12-06T21:13:29.814240", "MEAN_MOTION": 14.67255525, "ECCENTRICITY": 0.00082345, "INCLINATION": 86.3839, "RA_OF_ASC_NODE": 29.8298, "ARG_OF_PERICENTER": 17.2013, "MEAN_ANOMALY": 160.0109, "EPHEMERIS_TYPE": 0, "CLASSIFICATION_TYPE": "U", "NORAD_CAT_ID": 33860, "ELEMENT_SET_NO": 999, "REV_AT_EPOCH": 88636, "BSTAR": 0.0021693873, "MEAN_MOTION_DOT": 0.00012261, "MEAN_MOTION_DDOT": 0}, "tle": {"line1": "1 33860U 97051AD  25340.88437285  .00012261  00000+0  21694-2 0  9996", "line2": "2 33860  86.3839  29.8298 0008234  17.2013 160.0109 14.67255525886368"}}, "geometry": {"type": "Point", "coordinates": [32.849216465523234, 42.653719524500865]}}, {"type": "Feature", "properties": {"norad_id": 33862, "name": "IRIDIUM 33 DEB", "group": "iridium-33-debris", "lat": 38.83269574138746, "lon": 42.690187203415725, "alt_km": 634.4581628276383, "timestamp": "2025-12-07T14:37:05.588587+00:00", "meta": {"OBJECT_NAME": "IRIDIUM 33 DEB", "OBJECT_ID": "1997-051AF", "EPOCH": "2025-12-06T22:52:44.288832", "MEAN_MOTION": 14.69335158, "ECCENTRICITY": 0.00538301, "INCLINATION": 86.4092, "RA_OF_ASC_NODE": 40.0818, "ARG_OF_PERICENTER": 88.4884, "MEAN_ANOMALY": 84.2838, "EPHEMERIS_TYPE": 0, "CLASSIFICATION_TYPE": "U", "NORAD_CAT_ID": 33862, "ELEMENT_SET_NO": 999, "REV_AT_EPOCH": 88738, "BSTAR": 0.0022450657, "MEAN_MOTION_DOT": 0.00013592, "MEAN_MOTION_DDOT": 0}, "tle": {"line1": "1 33862U 97051AF  25340.95329038  .00013592  00000+0  22451-2 0  9992", "line2": "2 33862  86.4092  40.0818 0053830  88.4884  84.2838 14.69335158887385"}}, "geometry": {"type": "Point", "coordinates": [42.690187203415725, 38.83269574138746]}}, {"type": "Feature", "properties": {"norad_id": 33866, "name": "IRIDIUM 33 DEB", "group": "iridium-33-debris", "lat": -19.491095239121197, "lon": -83.48143406176605, "alt_km": 736.5969851769823, "timestamp": "2025-12-07T14:37:05.588598+00:00", "meta": {"OBJECT_NAME": "IRIDIUM 33 DEB", "OBJECT_ID": "1997-051AK", "EPOCH": "2025-12-06T18:05:03.511968", "MEAN_MOTION": 14.25243122, "ECCENTRICITY": 0.01139909, "INCLINATION": 86.3006, "RA_OF_ASC_NODE": 95.5683, "ARG_OF_PERICENTER": 180.4799, "MEAN_ANOMALY": 311.3264, "EPHEMERIS_TYPE": 0, "CLASSIFICATION_TYPE": "U", "NORAD_CAT_ID": 33866, "ELEMENT_SET_NO": 999, "REV_AT_EPOCH": 86725, "BSTAR": 0.001308936, "MEAN_MOTION_DOT": 3.312e-05, "MEAN_MOTION_DDOT": 0}, "tle": {"line1": "1 33866U 97051AK  25340.75351287  .00003312  00000+0  13089-2 0  9991", "line2": "2 33866  86.3006  95.5683 0113990 180.4799 311.3264 14.25243122867252"}}, "geometry": {"type": "Point", "coordinates": [-83.48143406176605, -19.491095239121197]}}]}